{"type":"Topology","objects":{"communes":{"type":"GeometryCollection","geometries":[
{"type":"Polygon","arcs":[[765,766,767,768,769,770]],"id":"98","properties":{"Code_Commu":"09.163.07.01.","Code_Provi":"09.163.","CODE_REGIO":"09.","nom":"Ait Amira","Marocains_":null,"Etrangers_":null,"Populati_1":null,"Menages_":null,"nom_arabe":null}},
{"type":"Polygon","arcs":[[783,784,785,786,787,788]],"id":"101","properties":{"Code_Commu":"09.163.01.03.","Code_Provi":"09.163.","CODE_REGIO":"09.","nom":"Commune d'Ait Baha","Marocains_":6006,"Etrangers_":1,"Populati_1":6007,"Menages_":1611,"nom_arabe":"جماعة آيت باها"}},
{"type":"Polygon","arcs":[[1116,1117,1118,1119,1120,1121,1122,1123]],"id":"144","properties":{"Code_Commu":"09.163.05.03.","Code_Provi":"09.163.","CODE_REGIO":"09.","nom":"Commune d'Ait Milk","Marocains_":8706,"Etrangers_":0,"Populati_1":8706,"Menages_":2523,"nom_arabe":"جماعة آيت "}},
{"type":"Polygon","arcs":[[1133,1134,1135,1136,1137,1138,1139,-785,1140,-789,1141,1142]],"id":"146","properties":{"Code_Commu":"09.163.03.05.","Code_Provi":"09.163.","CODE_REGIO":"09.","nom":"Commune d'Ait Mzal","Marocains_":3305,"Etrangers_":0,"Populati_1":3305,"Menages_":970,"nom_arabe":"جماعة آيت مزال"}},
{"type":"Polygon","arcs":[[-788,1167,-786,-1140,1168,1169,1170,1171,1172,1173,-1142]],"id":"149","properties":{"Code_Commu":"09.163.03.07.","Code_Provi":"09.163.","CODE_REGIO":"09.","nom":"Commune d'Ait Ouadrim","Marocains_":4976,"Etrangers_":0,"Populati_1":4976,"Menages_":1455,"nom_arabe":"جماعة آيت وادريم"}},
{"type":"Polygon","arcs":[[1465,1466,1467,1468,1469,1470,1471,1472,1473,1474,1475,1476,1477]],"id":"186","properties":{"Code_Commu":"09.163.03.09.","Code_Provi":"09.163.","CODE_REGIO":"09.","nom":"Commune d'Aouguenz","Marocains_":2940,"Etrangers_":1,"Populati_1":2941,"Menages_":1050,"nom_arabe":"جماعة أوكنز"}},
{"type":"Polygon","arcs":[[-1122,1909,-1549,1910,1911,1912,1913,1914,1915,1916,-767,1917]],"id":"235","properties":{"Code_Commu":"09.163.05.11.","Code_Provi":"09.163.","CODE_REGIO":"09.","nom":"Belfaâ","Marocains_":36233,"Etrangers_":541,"Populati_1":36774,"Menages_":9935,"nom_arabe":"جماعة بلفاع"}},
{"type":"Polygon","arcs":[[2005]],"id":"248","properties":{"Code_Commu":"09.163.01.11.","Code_Provi":"09.163.","CODE_REGIO":"09.","nom":"Biougra","Marocains_":50569,"Etrangers_":57,"Populati_1":50626,"Menages_":13774,"nom_arabe":"جماعة بيوكرى"}},
{"type":"Polygon","arcs":[[2980,-1367,2981,-1469,2982,2983,2984,-2276]],"id":"369","properties":{"Code_Commu":"09.163.03.15.","Code_Provi":"09.163.","CODE_REGIO":"09.","nom":"Commune d'Ida-Ougnidif","Marocains_":2095,"Etrangers_":0,"Populati_1":2095,"Menages_":787,"nom_arabe":" جماعة إدا وكنظيف"}},
{"type":"Polygon","arcs":[[3049,-768,-1917,3050,3051,3052,3053]],"id":"381","properties":{"Code_Commu":"09.163.05.19.","Code_Provi":"09.163.","CODE_REGIO":"09.","nom":"Commune d'Inchaden","Marocains_":42040,"Etrangers_":684,"Populati_1":42724,"Menages_":11959,"nom_arabe":"جماعة انشادن"}},
{"type":"Polygon","arcs":[[4014,-1174,-1124,4015,-766,4016]],"id":"510","properties":{"Code_Commu":"09.163.07.29.","Code_Provi":"09.163.","CODE_REGIO":"09.","nom":"Sidi Boushab","Marocains_":8386,"Etrangers_":0,"Populati_1":8386,"Menages_":2294,"nom_arabe":"جماعة سيدي بوسحاب"}},
{"type":"Polygon","arcs":[[4246,4247,-1913,4248,4249,4250]],"id":"540","properties":{"Code_Commu":"09.163.05.21.","Code_Provi":"09.163.","CODE_REGIO":"09.","nom":"Massa","Marocains_":17939,"Etrangers_":7,"Populati_1":17946,"Menages_":4994,"nom_arabe":"جماعة ماسة"}},
{"type":"Polygon","arcs":[[5632],[5633]],"id":"733","properties":{"Code_Commu":"09.163.07.23.","Code_Provi":"09.163.","CODE_REGIO":"09.","nom":"Commune d'Oued Essafa","Marocains_":83280,"Etrangers_":162,"Populati_1":83442,"Menages_":21290,"nom_arabe":"جماعة واد الصفاء"}},
{"type":"Polygon","arcs":[[-2277,-2985,6604,6605,6606,-1136,6607,6608]],"id":"903","properties":{"Code_Commu":"09.163.03.13.","Code_Provi":"09.163.","CODE_REGIO":"09.","nom":"Hilala","Marocains_":1858,"Etrangers_":0,"Populati_1":1858,"Menages_":630,"nom_arabe":"جماعة هلالة"}},
{"type":"Polygon","arcs":[[-6608,-1135,6796,6797,6798]],"id":"935","properties":{"Code_Commu":"09.163.03.37.","Code_Provi":"09.163.","CODE_REGIO":"09.","nom":"Tassegdelt","Marocains_":4045,"Etrangers_":1,"Populati_1":4046,"Menages_":1260,"nom_arabe":"جماعة تسكدلت"}},
{"type":"Polygon","arcs":[[7142,7143,7144,7145,7146,-1476,7147,-1539,7148,-1118,7149,-1172]],"id":"1003","properties":{"Code_Commu":"09.163.03.25.","Code_Provi":"09.163.","CODE_REGIO":"09.","nom":"Commune de Sidi Abdallah El Bouchouari","Marocains_":6604,"Etrangers_":0,"Populati_1":6604,"Menages_":1834,"nom_arabe":"جماعة سيدي عبد الله البوشواري"}},
{"type":"Polygon","arcs":[[7375,-1143,-4015,7376,7377,-461,7378,-6798]],"id":"1046","properties":{"Code_Commu":"09.163.07.17.","Code_Provi":"09.163.","CODE_REGIO":"09.","nom":"Commune d'Imi-Mqourn","Marocains_":10365,"Etrangers_":0,"Populati_1":10365,"Menages_":2783,"nom_arabe":"جماعة إمي مقورن"}},
{"type":"Polygon","arcs":[[7569,-1138,7570,7571,-1478,7572,-7146,7573,-7144,7574,-1170]],"id":"1090","properties":{"Code_Commu":"09.163.03.35.","Code_Provi":"09.163.","CODE_REGIO":"09.","nom":"Commune de Targua-Ntouchka","Marocains_":3371,"Etrangers_":0,"Populati_1":3371,"Menages_":1083,"nom_arabe":"جماعة تركا نتوشكا"}},
{"type":"MultiPolygon","arcs":[[[8654,-770,8655,-3054,8656,-8249]],[[8657]]],"id":"1308","properties":{"Code_Commu":"09.163.07.27.","Code_Provi":"09.163.","CODE_REGIO":"09.","nom":"Sidi Bibi","Marocains_":null,"Etrangers_":null,"Populati_1":null,"Menages_":null,"nom_arabe":null}},
{"type":"Polygon","arcs":[[8851,-1915,8852,-4247,8853,-3052]],"id":"1349","properties":{"Code_Commu":"09.163.05.31.","Code_Provi":"09.163.","CODE_REGIO":"09.","nom":"Sidi Ouassay","Marocains_":9981,"Etrangers_":69,"Populati_1":10050,"Menages_":2748,"nom_arabe":"جماعة سيدي وساي"}},
{"type":"Polygon","arcs":[[-1366,9013,-5707,9014,-5917,-8953,-5938,-1472,9015,-1470,-2982]],"id":"1391","properties":{"Code_Commu":"09.163.03.33.","Code_Provi":"09.163.","CODE_REGIO":"09.","nom":"Commune de Tanalt","Marocains_":2138,"Etrangers_":0,"Populati_1":2138,"Menages_":766,"nom_arabe":"جماعة تنالت"}},
{"type":"MultiPolygon","arcs":[[[8654,-770,8655,-3054,8656,-8249]],[[8657]]],"id":"1308","properties":{"Code_Commu":"09.163.07.27.","Code_Provi":"09.163.","CODE_REGIO":"09.","nom":"Sidi Bibi","Marocains_":null,"Etrangers_":null,"Populati_1":null,"Menages_":null,"nom_arabe":null}}
]}}}